ERS-1                   
1 21574U 91050A   26067.51564445  .00000438  00000+0  15465-3 0  9997
2 21574  98.7884  85.7208 0031552 203.9802 155.9917 14.39448449815567
ARIANE 40 R/B           
1 21610U 91050F   26067.56938990  .00000411  00000+0  13564-3 0  9992
2 21610  98.2014 119.8479 0004354  83.7464 276.4223 14.42892840818839
INTERCOSMOS 25          
1 21819U 91086A   26067.41942807  .00001745  00000+0  33514-3 0  9996
2 21819  82.6047 310.7767 1486987 119.6668 256.0747 12.11995335496538
SL-8 R/B                
1 21876U 92008B   26067.63147845  .00000017  00000+0  14687-5 0  9990
2 21876  82.9224 268.5657 0035480 136.2159 287.0199 13.75969836709277
SL-8 R/B                
1 21938U 92020B   26067.61185995  .00000093  00000+0  81185-4 0  9999
2 21938  82.9338 154.5617 0027706 301.9575 172.2486 13.75549393700982
USA 81                  
1 21949U 92023A   26067.61093989  .00000227  00000+0  76640-4 0  9994
2 21949  85.0087 132.0635 0002503  78.7085 281.4389 14.32367697 94635
COSMOS 2219             
1 22219U 92076A   26067.60140652  .00000171  00000+0  11412-3 0  9995
2 22219  71.0632  20.3420 0019065 208.5278 151.4802 14.14092167718227
SL-16 R/B               
1 22220U 92076B   26067.62777626 -.00000143  00000+0 -47522-4 0  9999
2 22220  71.0007 190.6101 0010471  98.3561 272.8031 14.16859973721688
COSMOS 2221             
1 22236U 92080A   26067.63419814  .00002265  00000+0  19839-3 0  9998
2 22236  82.5009 280.0923 0013947 190.6659 169.4270 14.96196210780637
SL-16 R/B               
1 22285U 92093B   26067.25542577 -.00000204  00000+0 -80217-4 0  9999
2 22285  71.0241   7.2762 0006376 295.1908  64.8553 14.15448322712955
COSMOS 2228             
1 22286U 92094A   26067.58442724  .00003064  00000+0  26220-3 0  9998
2 22286  82.5155 238.3685 0016809 308.7222  51.2497 14.97184073775899
SL-16 R/B               
1 22566U 93016B   26067.57842066  .00000184  00000+0  11903-3 0  9998
2 22566  71.0069 217.5144 0011692 315.6837  44.3348 14.15308411702016
